ONEWEB-0056             
1 45159U 20008AE  25235.11666207 -.00000212  00000+0 -64228-3 0  9991
2 45159  87.8764  95.7126 0001760  82.8344 277.2983 13.10376240269146
ONEWEB-0057             
1 45160U 20008AF  25235.12413290  .00000102  00000+0  25590-3 0  9991
2 45160  87.8767  95.7250 0001871  84.0912 276.0429 13.10377093269315
ONEWEB-0058             
1 45161U 20008AG  25235.11098101 -.00000468  00000+0 -13780-2 0  9995
2 45161  87.8763  95.7382 0001697  76.1563 283.9753 13.10375914269382
ONEWEB-0059             
1 45162U 20008AH  25235.18387987 -.00000616  00000+0 -18013-2 0  9995
2 45162  87.8764  95.7234 0001674  77.2494 282.8820 13.10372781269292
ONEWEB-0062             
1 45163U 20008AJ  25235.13327502  .00000513  00000+0  14320-2 0  9999
2 45163  87.8762  95.7116 0001377  79.9493 280.1789 13.10374890269151
ONEWEB-0065             
1 45164U 20008AK  25235.11333062 -.00000419  00000+0 -12374-2 0  9990
2 45164  87.8764  95.7412 0001935  90.8958 269.2391 13.10374320268841
ONEWEB-0066             
1 45424U 20020A   25235.13149241 -.00000457  00000+0 -13257-2 0  9992
2 45424  87.8782  80.4549 0001950  80.9331 279.2017 13.11414230263616
ONEWEB-0067             
1 45425U 20020B   25235.09262641  .00000535  00000+0  14739-2 0  9999
2 45425  87.8773  80.3715 0001897  82.9360 277.1983 13.11419519263664
ONEWEB-0080             
1 45426U 20020C   25235.10184780  .00000599  00000+0  16533-2 0  9993
2 45426  87.8785  80.4621 0001639  72.7416 287.3891 13.11416788263631
ONEWEB-0090             
1 45427U 20020D   25235.27393080 -.00000046  00000+0 -16693-3 0  9994
2 45427  87.8780  80.4286 0001663  84.8977 275.2341 13.11415150263624
ONEWEB-0061             
1 45428U 20020E   25235.07709642 -.00000076  00000+0 -24923-3 0  9996
2 45428  87.8783  80.4496 0001757  82.6306 277.5021 13.11420431263557
ONEWEB-0081             
1 45429U 20020F   25235.13488926 -.00000532  00000+0 -15382-2 0  9998
2 45429  87.8774  80.4571 0001945  81.5087 278.6262 13.11415692263670
ONEWEB-0069             
1 45430U 20020G   25235.27647077 -.00000123  00000+0 -38237-3 0  9990
2 45430  87.8782  80.4224 0001842  85.9275 274.2063 13.11415075263620
ONEWEB-0031             
1 45431U 20020H   25235.09590837  .00000474  00000+0  13004-2 0  9993
2 45431  87.8782  80.4883 0001529  83.2379 276.8923 13.11416475263583
ONEWEB-0027             
1 45432U 20020J   25234.49704278  .00000041  00000+0  71169-4 0  9991
2 45432  87.9031  65.2696 0001414  96.2190 263.9102 13.17648438267024
ONEWEB-0064             
1 45433U 20020K   25235.09421176  .00000506  00000+0  13927-2 0  9994
2 45433  87.8780  80.4800 0001564  86.5700 273.5607 13.11416779263619
ONEWEB-0018             
1 45434U 20020L   25235.27901118 -.00000217  00000+0 -64890-3 0  9991
2 45434  87.8776  80.4269 0001733  83.6340 276.4986 13.11415564263589
