[{"OBJECT_NAME":"ONEWEB-0056","OBJECT_ID":"2020-008AE","EPOCH":"2025-08-23T02:47:59.602848","MEAN_MOTION":13.1037624,"ECCENTRICITY":0.00017609,"INCLINATION":87.8764,"RA_OF_ASC_NODE":95.7126,"ARG_OF_PERICENTER":82.8344,"MEAN_ANOMALY":277.2983,"EPHEMERIS_TYPE":0,"CLASSIFICATION_TYPE":"U","NORAD_CAT_ID":45159,"ELEMENT_SET_NO":999,"REV_AT_EPOCH":26914,"BSTAR":-0.00064227583,"MEAN_MOTION_DOT":-2.12e-6,"MEAN_MOTION_DDOT":0},{"OBJECT_NAME":"ONEWEB-0057","OBJECT_ID":"2020-008AF","EPOCH":"2025-08-23T02:58:45.082560","MEAN_MOTION":13.10377093,"ECCENTRICITY":0.00018716,"INCLINATION":87.8767,"RA_OF_ASC_NODE":95.725,"ARG_OF_PERICENTER":84.0912,"MEAN_ANOMALY":276.0429,"EPHEMERIS_TYPE":0,"CLASSIFICATION_TYPE":"U","NORAD_CAT_ID":45160,"ELEMENT_SET_NO":999,"REV_AT_EPOCH":26931,"BSTAR":0.0002558996,"MEAN_MOTION_DOT":1.02e-6,"MEAN_MOTION_DDOT":0},{"OBJECT_NAME":"ONEWEB-0058","OBJECT_ID":"2020-008AG","EPOCH":"2025-08-23T02:39:48.759264","MEAN_MOTION":13.10375914,"ECCENTRICITY":0.00016971,"INCLINATION":87.8763,"RA_OF_ASC_NODE":95.7382,"ARG_OF_PERICENTER":76.1563,"MEAN_ANOMALY":283.9753,"EPHEMERIS_TYPE":0,"CLASSIFICATION_TYPE":"U","NORAD_CAT_ID":45161,"ELEMENT_SET_NO":999,"REV_AT_EPOCH":26938,"BSTAR":-0.001377964,"MEAN_MOTION_DOT":-4.68e-6,"MEAN_MOTION_DDOT":0},{"OBJECT_NAME":"ONEWEB-0059","OBJECT_ID":"2020-008AH","EPOCH":"2025-08-23T04:24:47.220768","MEAN_MOTION":13.10372781,"ECCENTRICITY":0.00016745,"INCLINATION":87.8764,"RA_OF_ASC_NODE":95.7234,"ARG_OF_PERICENTER":77.2494,"MEAN_ANOMALY":282.882,"EPHEMERIS_TYPE":0,"CLASSIFICATION_TYPE":"U","NORAD_CAT_ID":45162,"ELEMENT_SET_NO":999,"REV_AT_EPOCH":26929,"BSTAR":-0.0018012878,"MEAN_MOTION_DOT":-6.16e-6,"MEAN_MOTION_DDOT":0},{"OBJECT_NAME":"ONEWEB-0062","OBJECT_ID":"2020-008AJ","EPOCH":"2025-08-23T03:11:54.961728","MEAN_MOTION":13.1037489,"ECCENTRICITY":0.00013776,"INCLINATION":87.8762,"RA_OF_ASC_NODE":95.7116,"ARG_OF_PERICENTER":79.9493,"MEAN_ANOMALY":280.1789,"EPHEMERIS_TYPE":0,"CLASSIFICATION_TYPE":"U","NORAD_CAT_ID":45163,"ELEMENT_SET_NO":999,"REV_AT_EPOCH":26915,"BSTAR":0.0014320097,"MEAN_MOTION_DOT":5.13e-6,"MEAN_MOTION_DDOT":0},{"OBJECT_NAME":"ONEWEB-0065","OBJECT_ID":"2020-008AK","EPOCH":"2025-08-23T02:43:11.765568","MEAN_MOTION":13.1037432,"ECCENTRICITY":0.00019359,"INCLINATION":87.8764,"RA_OF_ASC_NODE":95.7412,"ARG_OF_PERICENTER":90.8958,"MEAN_ANOMALY":269.2391,"EPHEMERIS_TYPE":0,"CLASSIFICATION_TYPE":"U","NORAD_CAT_ID":45164,"ELEMENT_SET_NO":999,"REV_AT_EPOCH":26884,"BSTAR":-0.0012373719,"MEAN_MOTION_DOT":-4.19e-6,"MEAN_MOTION_DDOT":0},{"OBJECT_NAME":"ONEWEB-0066","OBJECT_ID":"2020-020A","EPOCH":"2025-08-23T03:09:20.944224","MEAN_MOTION":13.1141423,"ECCENTRICITY":0.000195,"INCLINATION":87.8782,"RA_OF_ASC_NODE":80.4549,"ARG_OF_PERICENTER":80.9331,"MEAN_ANOMALY":279.2017,"EPHEMERIS_TYPE":0,"CLASSIFICATION_TYPE":"U","NORAD_CAT_ID":45424,"ELEMENT_SET_NO":999,"REV_AT_EPOCH":26361,"BSTAR":-0.0013257294,"MEAN_MOTION_DOT":-4.57e-6,"MEAN_MOTION_DDOT":0},{"OBJECT_NAME":"ONEWEB-0067","OBJECT_ID":"2020-020B","EPOCH":"2025-08-23T02:13:22.921824","MEAN_MOTION":13.11419519,"ECCENTRICITY":0.00018977,"INCLINATION":87.8773,"RA_OF_ASC_NODE":80.3715,"ARG_OF_PERICENTER":82.936,"MEAN_ANOMALY":277.1983,"EPHEMERIS_TYPE":0,"CLASSIFICATION_TYPE":"U","NORAD_CAT_ID":45425,"ELEMENT_SET_NO":999,"REV_AT_EPOCH":26366,"BSTAR":0.0014738814,"MEAN_MOTION_DOT":5.35e-6,"MEAN_MOTION_DDOT":0},{"OBJECT_NAME":"ONEWEB-0080","OBJECT_ID":"2020-020C","EPOCH":"2025-08-23T02:26:39.649920","MEAN_MOTION":13.11416788,"ECCENTRICITY":0.00016392,"INCLINATION":87.8785,"RA_OF_ASC_NODE":80.4621,"ARG_OF_PERICENTER":72.7416,"MEAN_ANOMALY":287.3891,"EPHEMERIS_TYPE":0,"CLASSIFICATION_TYPE":"U","NORAD_CAT_ID":45426,"ELEMENT_SET_NO":999,"REV_AT_EPOCH":26363,"BSTAR":0.0016533428,"MEAN_MOTION_DOT":5.99e-6,"MEAN_MOTION_DDOT":0},{"OBJECT_NAME":"ONEWEB-0090","OBJECT_ID":"2020-020D","EPOCH":"2025-08-23T06:34:27.621120","MEAN_MOTION":13.1141515,"ECCENTRICITY":0.00016632,"INCLINATION":87.878,"RA_OF_ASC_NODE":80.4286,"ARG_OF_PERICENTER":84.8977,"MEAN_ANOMALY":275.2341,"EPHEMERIS_TYPE":0,"CLASSIFICATION_TYPE":"U","NORAD_CAT_ID":45427,"ELEMENT_SET_NO":999,"REV_AT_EPOCH":26362,"BSTAR":-0.00016693373,"MEAN_MOTION_DOT":-4.6e-7,"MEAN_MOTION_DDOT":0},{"OBJECT_NAME":"ONEWEB-0061","OBJECT_ID":"2020-020E","EPOCH":"2025-08-23T01:51:01.130688","MEAN_MOTION":13.11420431,"ECCENTRICITY":0.00017577,"INCLINATION":87.8783,"RA_OF_ASC_NODE":80.4496,"ARG_OF_PERICENTER":82.6306,"MEAN_ANOMALY":277.5021,"EPHEMERIS_TYPE":0,"CLASSIFICATION_TYPE":"U","NORAD_CAT_ID":45428,"ELEMENT_SET_NO":999,"REV_AT_EPOCH":26355,"BSTAR":-0.00024923326,"MEAN_MOTION_DOT":-7.6e-7,"MEAN_MOTION_DDOT":0},{"OBJECT_NAME":"ONEWEB-0081","OBJECT_ID":"2020-020F","EPOCH":"2025-08-23T03:14:14.432064","MEAN_MOTION":13.11415692,"ECCENTRICITY":0.00019451,"INCLINATION":87.8774,"RA_OF_ASC_NODE":80.4571,"ARG_OF_PERICENTER":81.5087,"MEAN_ANOMALY":278.6262,"EPHEMERIS_TYPE":0,"CLASSIFICATION_TYPE":"U","NORAD_CAT_ID":45429,"ELEMENT_SET_NO":999,"REV_AT_EPOCH":26367,"BSTAR":-0.0015382205,"MEAN_MOTION_DOT":-5.32e-6,"MEAN_MOTION_DDOT":0},{"OBJECT_NAME":"ONEWEB-0069","OBJECT_ID":"2020-020G","EPOCH":"2025-08-23T06:38:07.074528","MEAN_MOTION":13.11415075,"ECCENTRICITY":0.00018424,"INCLINATION":87.8782,"RA_OF_ASC_NODE":80.4224,"ARG_OF_PERICENTER":85.9275,"MEAN_ANOMALY":274.2063,"EPHEMERIS_TYPE":0,"CLASSIFICATION_TYPE":"U","NORAD_CAT_ID":45430,"ELEMENT_SET_NO":999,"REV_AT_EPOCH":26362,"BSTAR":-0.00038236897,"MEAN_MOTION_DOT":-1.23e-6,"MEAN_MOTION_DDOT":0},{"OBJECT_NAME":"ONEWEB-0031","OBJECT_ID":"2020-020H","EPOCH":"2025-08-23T02:18:06.483168","MEAN_MOTION":13.11416475,"ECCENTRICITY":0.00015295,"INCLINATION":87.8782,"RA_OF_ASC_NODE":80.4883,"ARG_OF_PERICENTER":83.2379,"MEAN_ANOMALY":276.8923,"EPHEMERIS_TYPE":0,"CLASSIFICATION_TYPE":"U","NORAD_CAT_ID":45431,"ELEMENT_SET_NO":999,"REV_AT_EPOCH":26358,"BSTAR":0.001300368,"MEAN_MOTION_DOT":4.74e-6,"MEAN_MOTION_DDOT":0},{"OBJECT_NAME":"ONEWEB-0027","OBJECT_ID":"2020-020J","EPOCH":"2025-08-22T11:55:44.496192","MEAN_MOTION":13.17648438,"ECCENTRICITY":0.00014145,"INCLINATION":87.9031,"RA_OF_ASC_NODE":65.2696,"ARG_OF_PERICENTER":96.219,"MEAN_ANOMALY":263.9102,"EPHEMERIS_TYPE":0,"CLASSIFICATION_TYPE":"U","NORAD_CAT_ID":45432,"ELEMENT_SET_NO":999,"REV_AT_EPOCH":26702,"BSTAR":7.1168679e-5,"MEAN_MOTION_DOT":4.1e-7,"MEAN_MOTION_DDOT":0},{"OBJECT_NAME":"ONEWEB-0064","OBJECT_ID":"2020-020K","EPOCH":"2025-08-23T02:15:39.896064","MEAN_MOTION":13.11416779,"ECCENTRICITY":0.00015648,"INCLINATION":87.878,"RA_OF_ASC_NODE":80.48,"ARG_OF_PERICENTER":86.57,"MEAN_ANOMALY":273.5607,"EPHEMERIS_TYPE":0,"CLASSIFICATION_TYPE":"U","NORAD_CAT_ID":45433,"ELEMENT_SET_NO":999,"REV_AT_EPOCH":26361,"BSTAR":0.0013926951,"MEAN_MOTION_DOT":5.06e-6,"MEAN_MOTION_DDOT":0},{"OBJECT_NAME":"ONEWEB-0018","OBJECT_ID":"2020-020L","EPOCH":"2025-08-23T06:41:46.565952","MEAN_MOTION":13.11415564,"ECCENTRICITY":0.0001733,"INCLINATION":87.8776,"RA_OF_ASC_NODE":80.4269,"ARG_OF_PERICENTER":83.634,"MEAN_ANOMALY":276.4986,"EPHEMERIS_TYPE":0,"CLASSIFICATION_TYPE":"U","NORAD_CAT_ID":45434,"ELEMENT_SET_NO":999,"REV_AT_EPOCH":26358,"BSTAR":-0.00064890277,"MEAN_MOTION_DOT":-2.17e-6,"MEAN_MOTION_DDOT":0}]
